0 STARLINK-3003
1 48879U 21059A   24002.92868845  .00003062  00000-0  24283-3 0  9994
2 48879  97.6582 129.4875 0001702  68.4822 291.6583 15.01273652139257
0 STARLINK-3004
1 48880U 21059B   24002.92651497 -.00000149  00000-0 -69873-5 0  9990
2 48880  97.6563 129.4661 0000876 122.2164 237.9146 15.01258666139256
0 STARLINK-3005
1 48881U 21059C   24002.91984702 -.00000658  00000-0 -46609-4 0  9994
2 48881  97.6582 129.4058 0003060 255.9397 104.1487 15.01260031139261
0 SPACEBEE-100
1 48883U 21059E   24002.95548696  .00114710  00000-0  14708-2 0  9994
2 48883  97.6062 153.1417 0004588 286.9799  73.0954 15.58757233140177
0 SPACEBEE-101
1 48884U 21059F   24002.90364370  .00093133  00000-0  13495-2 0  9992
2 48884  97.6065 152.4803 0004842 292.6408  67.4334 15.55535148140126
0 LEMUR 2 JACKSON
1 48885U 21059G   24002.93240796  .00216731  00000-0  16114-2 0  9993
2 48885  97.5739 156.0748 0007965 290.0695  69.9710 15.72142061140392
0 SPACEBEE-102
1 48886U 21059H   24002.97015092  .00098699  00000-0  13824-2 0  9993
2 48886  97.6080 152.6956 0004620 289.4362  70.6392 15.56439812140147
0 SPACEBEE-103
1 48888U 21059K   24002.97625435  .00115445  00000-0  14503-2 0  9997
2 48888  97.6075 153.5097 0004724 289.9288  70.1458 15.59296789140196
0 SPACEBEE-104
1 48890U 21059M   24002.96721061  .00123846  00000-0  14792-2 0  9995
2 48890  97.6040 153.5886 0005315 291.6611  68.4079 15.60597468140205
0 TYVAK-0173
1 48892U 21059P   24002.77801261  .00002453  00000-0  36052-3 0  9991
2 48892  96.0163 295.0118 0010403 167.4855 192.6620 14.75996436135748
0 SPACEBEE-106
1 48893U 21059Q   24002.92535236  .00092629  00000-0  13348-2 0  9991
2 48893  97.6081 152.9980 0004896 294.1221  65.9521 15.55687555140147
0 SPACEBEE-107
1 48894U 21059R   24002.98643739  .00138714  00000-0  15007-2 0  9996
2 48894  97.6067 154.6498 0005124 289.7138  70.3567 15.63119560140254
0 SPACEBEE-108
1 48895U 21059S   24003.15414429  .00095262  00000-0  13549-2 0  9998
2 48895  97.6079 153.2682 0005053 289.0315  71.0391 15.56033247140183
0 SPACEBEE-105
1 48896U 21059T   24002.96557727  .00116905  00000-0  14260-2 0  9995
2 48896  97.6074 153.4753 0004735 284.1682  75.9048 15.60070683140192
0 SPACEBEE-109
1 48897U 21059U   24002.88535051  .00130909  00000-0  15155-2 0  9997
2 48897  97.6067 154.1230 0005589 291.0073  69.0585 15.61388695140211
0 CENTAURI-4 (TYVAK-0211)
1 48898U 21059V   24002.90700086  .00053477  00000-0  89484-3 0  9994
2 48898  97.6044 153.3825 0005382 277.7258  82.3383 15.51704675140195
