[{"OBJECT_NAME":"STARLINK-3003","OBJECT_ID":"2021-059A","EPOCH":"2024-01-02T22:17:18.682080","MEAN_MOTION":15.01273652,"ECCENTRICITY":0.0001702,"INCLINATION":97.6582,"RA_OF_ASC_NODE":129.4875,"ARG_OF_PERICENTER":68.4822,"MEAN_ANOMALY":291.6583,"EPHEMERIS_TYPE":0,"CLASSIFICATION_TYPE":"U","NORAD_CAT_ID":48879,"ELEMENT_SET_NO":999,"REV_AT_EPOCH":13925,"BSTAR":0.00024283,"MEAN_MOTION_DOT":3.062e-5,"MEAN_MOTION_DDOT":0},{"OBJECT_NAME":"STARLINK-3004","OBJECT_ID":"2021-059B","EPOCH":"2024-01-02T22:14:10.893408","MEAN_MOTION":15.01258666,"ECCENTRICITY":8.76e-5,"INCLINATION":97.6563,"RA_OF_ASC_NODE":129.4661,"ARG_OF_PERICENTER":122.2164,"MEAN_ANOMALY":237.9146,"EPHEMERIS_TYPE":0,"CLASSIFICATION_TYPE":"U","NORAD_CAT_ID":48880,"ELEMENT_SET_NO":999,"REV_AT_EPOCH":13925,"BSTAR":-6.9873e-6,"MEAN_MOTION_DOT":-1.49e-6,"MEAN_MOTION_DDOT":0},{"OBJECT_NAME":"STARLINK-3005","OBJECT_ID":"2021-059C","EPOCH":"2024-01-02T22:04:34.782528","MEAN_MOTION":15.01260031,"ECCENTRICITY":0.000306,"INCLINATION":97.6582,"RA_OF_ASC_NODE":129.4058,"ARG_OF_PERICENTER":255.9397,"MEAN_ANOMALY":104.1487,"EPHEMERIS_TYPE":0,"CLASSIFICATION_TYPE":"U","NORAD_CAT_ID":48881,"ELEMENT_SET_NO":999,"REV_AT_EPOCH":13926,"BSTAR":-4.6609e-5,"MEAN_MOTION_DOT":-6.58e-6,"MEAN_MOTION_DDOT":0},{"OBJECT_NAME":"SPACEBEE-100","OBJECT_ID":"2021-059E","EPOCH":"2024-01-02T22:55:54.073344","MEAN_MOTION":15.58757233,"ECCENTRICITY":0.0004588,"INCLINATION":97.6062,"RA_OF_ASC_NODE":153.1417,"ARG_OF_PERICENTER":286.9799,"MEAN_ANOMALY":73.0954,"EPHEMERIS_TYPE":0,"CLASSIFICATION_TYPE":"U","NORAD_CAT_ID":48883,"ELEMENT_SET_NO":999,"REV_AT_EPOCH":14017,"BSTAR":0.0014708,"MEAN_MOTION_DOT":0.0011471,"MEAN_MOTION_DDOT":0},{"OBJECT_NAME":"SPACEBEE-101","OBJECT_ID":"2021-059F","EPOCH":"2024-01-02T21:41:14.815680","MEAN_MOTION":15.55535148,"ECCENTRICITY":0.0004842,"INCLINATION":97.6065,"RA_OF_ASC_NODE":152.4803,"ARG_OF_PERICENTER":292.6408,"MEAN_ANOMALY":67.4334,"EPHEMERIS_TYPE":0,"CLASSIFICATION_TYPE":"U","NORAD_CAT_ID":48884,"ELEMENT_SET_NO":999,"REV_AT_EPOCH":14012,"BSTAR":0.0013495,"MEAN_MOTION_DOT":0.00093133,"MEAN_MOTION_DDOT":0},{"OBJECT_NAME":"LEMUR-2-JACKSON","OBJECT_ID":"2021-059G","EPOCH":"2024-01-02T22:22:40.047744","MEAN_MOTION":15.72142061,"ECCENTRICITY":0.0007965,"INCLINATION":97.5739,"RA_OF_ASC_NODE":156.0748,"ARG_OF_PERICENTER":290.0695,"MEAN_ANOMALY":69.971,"EPHEMERIS_TYPE":0,"CLASSIFICATION_TYPE":"U","NORAD_CAT_ID":48885,"ELEMENT_SET_NO":999,"REV_AT_EPOCH":14039,"BSTAR":0.0016114,"MEAN_MOTION_DOT":0.00216731,"MEAN_MOTION_DDOT":0},{"OBJECT_NAME":"SPACEBEE-102","OBJECT_ID":"2021-059H","EPOCH":"2024-01-02T23:17:01.039488","MEAN_MOTION":15.56439812,"ECCENTRICITY":0.000462,"INCLINATION":97.608,"RA_OF_ASC_NODE":152.6956,"ARG_OF_PERICENTER":289.4362,"MEAN_ANOMALY":70.6392,"EPHEMERIS_TYPE":0,"CLASSIFICATION_TYPE":"U","NORAD_CAT_ID":48886,"ELEMENT_SET_NO":999,"REV_AT_EPOCH":14014,"BSTAR":0.0013824,"MEAN_MOTION_DOT":0.00098699,"MEAN_MOTION_DDOT":0},{"OBJECT_NAME":"SPACEBEE-103","OBJECT_ID":"2021-059K","EPOCH":"2024-01-02T23:25:48.375840","MEAN_MOTION":15.59296789,"ECCENTRICITY":0.0004724,"INCLINATION":97.6075,"RA_OF_ASC_NODE":153.5097,"ARG_OF_PERICENTER":289.9288,"MEAN_ANOMALY":70.1458,"EPHEMERIS_TYPE":0,"CLASSIFICATION_TYPE":"U","NORAD_CAT_ID":48888,"ELEMENT_SET_NO":999,"REV_AT_EPOCH":14019,"BSTAR":0.0014503,"MEAN_MOTION_DOT":0.00115445,"MEAN_MOTION_DDOT":0},{"OBJECT_NAME":"SPACEBEE-104","OBJECT_ID":"2021-059M","EPOCH":"2024-01-02T23:12:46.996704","MEAN_MOTION":15.60597468,"ECCENTRICITY":0.0005315,"INCLINATION":97.604,"RA_OF_ASC_NODE":153.5886,"ARG_OF_PERICENTER":291.6611,"MEAN_ANOMALY":68.4079,"EPHEMERIS_TYPE":0,"CLASSIFICATION_TYPE":"U","NORAD_CAT_ID":48890,"ELEMENT_SET_NO":999,"REV_AT_EPOCH":14020,"BSTAR":0.0014792,"MEAN_MOTION_DOT":0.00123846,"MEAN_MOTION_DDOT":0},{"OBJECT_NAME":"TYVAK-0173","OBJECT_ID":"2021-059P","EPOCH":"2024-01-02T18:40:20.289504","MEAN_MOTION":14.75996436,"ECCENTRICITY":0.0010403,"INCLINATION":96.0163,"RA_OF_ASC_NODE":295.0118,"ARG_OF_PERICENTER":167.4855,"MEAN_ANOMALY":192.662,"EPHEMERIS_TYPE":0,"CLASSIFICATION_TYPE":"U","NORAD_CAT_ID":48892,"ELEMENT_SET_NO":999,"REV_AT_EPOCH":13574,"BSTAR":0.00036052,"MEAN_MOTION_DOT":2.453e-5,"MEAN_MOTION_DDOT":0},{"OBJECT_NAME":"SPACEBEE-106","OBJECT_ID":"2021-059Q","EPOCH":"2024-01-02T22:12:30.443904","MEAN_MOTION":15.55687555,"ECCENTRICITY":0.0004896,"INCLINATION":97.6081,"RA_OF_ASC_NODE":152.998,"ARG_OF_PERICENTER":294.1221,"MEAN_ANOMALY":65.9521,"EPHEMERIS_TYPE":0,"CLASSIFICATION_TYPE":"U","NORAD_CAT_ID":48893,"ELEMENT_SET_NO":999,"REV_AT_EPOCH":14014,"BSTAR":0.0013348,"MEAN_MOTION_DOT":0.00092629,"MEAN_MOTION_DDOT":0},{"OBJECT_NAME":"SPACEBEE-107","OBJECT_ID":"2021-059R","EPOCH":"2024-01-02T23:40:28.190496","MEAN_MOTION":15.6311956,"ECCENTRICITY":0.0005124,"INCLINATION":97.6067,"RA_OF_ASC_NODE":154.6498,"ARG_OF_PERICENTER":289.7138,"MEAN_ANOMALY":70.3567,"EPHEMERIS_TYPE":0,"CLASSIFICATION_TYPE":"U","NORAD_CAT_ID":48894,"ELEMENT_SET_NO":999,"REV_AT_EPOCH":14025,"BSTAR":0.0015007,"MEAN_MOTION_DOT":0.00138714,"MEAN_MOTION_DDOT":0},{"OBJECT_NAME":"SPACEBEE-108","OBJECT_ID":"2021-059S","EPOCH":"2024-01-03T03:41:58.066656","MEAN_MOTION":15.56033247,"ECCENTRICITY":0.0005053,"INCLINATION":97.6079,"RA_OF_ASC_NODE":153.2682,"ARG_OF_PERICENTER":289.0315,"MEAN_ANOMALY":71.0391,"EPHEMERIS_TYPE":0,"CLASSIFICATION_TYPE":"U","NORAD_CAT_ID":48895,"ELEMENT_SET_NO":999,"REV_AT_EPOCH":14018,"BSTAR":0.0013549,"MEAN_MOTION_DOT":0.00095262,"MEAN_MOTION_DDOT":0},{"OBJECT_NAME":"SPACEBEE-105","OBJECT_ID":"2021-059T","EPOCH":"2024-01-02T23:10:25.876128","MEAN_MOTION":15.60070683,"ECCENTRICITY":0.0004735,"INCLINATION":97.6074,"RA_OF_ASC_NODE":153.4753,"ARG_OF_PERICENTER":284.1682,"MEAN_ANOMALY":75.9048,"EPHEMERIS_TYPE":0,"CLASSIFICATION_TYPE":"U","NORAD_CAT_ID":48896,"ELEMENT_SET_NO":999,"REV_AT_EPOCH":14019,"BSTAR":0.001426,"MEAN_MOTION_DOT":0.00116905,"MEAN_MOTION_DDOT":0},{"OBJECT_NAME":"SPACEBEE-109","OBJECT_ID":"2021-059U","EPOCH":"2024-01-02T21:14:54.284064","MEAN_MOTION":15.61388695,"ECCENTRICITY":0.0005589,"INCLINATION":97.6067,"RA_OF_ASC_NODE":154.123,"ARG_OF_PERICENTER":291.0073,"MEAN_ANOMALY":69.0585,"EPHEMERIS_TYPE":0,"CLASSIFICATION_TYPE":"U","NORAD_CAT_ID":48897,"ELEMENT_SET_NO":999,"REV_AT_EPOCH":14021,"BSTAR":0.0015155,"MEAN_MOTION_DOT":0.00130909,"MEAN_MOTION_DDOT":0},{"OBJECT_NAME":"CENTAURI-4 (TYVAK-0211)","OBJECT_ID":"2021-059V","EPOCH":"2024-01-02T21:46:04.874304","MEAN_MOTION":15.51704675,"ECCENTRICITY":0.0005382,"INCLINATION":97.6044,"RA_OF_ASC_NODE":153.3825,"ARG_OF_PERICENTER":277.7258,"MEAN_ANOMALY":82.3383,"EPHEMERIS_TYPE":0,"CLASSIFICATION_TYPE":"U","NORAD_CAT_ID":48898,"ELEMENT_SET_NO":999,"REV_AT_EPOCH":14019,"BSTAR":0.00089484,"MEAN_MOTION_DOT":0.00053477,"MEAN_MOTION_DDOT":0}]
